ORBCOMM FM37            
1 33064U 08031E   25327.05893273  .00001969  00000+0  28206-3 0  9999
2 33064  48.4397 308.0025 0005604 335.7366  58.9197 14.80488855937581
ORBCOMM FM40            
1 33065U 08031F   25327.13541904  .00002642  00000+0  34832-3 0  9991
2 33065  48.4412 288.9129 0006465 352.3249 101.6025 14.82960845937742
VESSELSAT 1             
1 37840U 11058C   25326.04367344  .00000382  00000+0  63566-4 0  9998
2 37840  19.9610 218.6740 0013756 122.9877 237.1851 14.11392599728633
ORBCOMM FM109           
1 40086U 14040A   25327.06703103  .00000719  00000+0  18984-3 0  9995
2 40086  47.0046 345.7780 0002072 322.8263  37.2479 14.58488632604250
ORBCOMM FM107           
1 40087U 14040B   25326.47084499  .00000717  00000+0  18902-3 0  9998
2 40087  47.0064 349.4927 0002042 278.9022  81.1632 14.58564965604248
ORBCOMM FM106           
1 40088U 14040C   25326.97402765  .00001035  00000+0  20211-3 0  9994
2 40088  47.0585 156.4188 0016053  85.3544 274.9180 14.69948797606836
ORBCOMM FM111           
1 40089U 14040D   25327.07620617  .00003083  00000+0  35733-3 0  9995
2 40089  47.0015 344.2951 0029660 235.6806 124.1283 14.87522093613878
ORBCOMM FM104           
1 40090U 14040E   25327.11403441  .00000683  00000+0  18808-3 0  9993
2 40090  47.0068  21.9849 0016850 214.0783 145.9021 14.56957733603795
